KUIPER-00089            
1 64834U 25151U   25334.06872198  .00007274  00000+0  97814-3 0  9998
2 64834  51.9021   6.1114 0001367   9.8321 350.2668 14.80106341 20761
KUIPER-00090            
1 64835U 25151V   25334.16671295 -.00018494  00000+0 -24909-2 0  9997
2 64835  51.8992 357.2576 0004187  30.7611 233.3465 14.78427446  5092
KUIPER-00091            
1 64836U 25151W   25333.80086769 -.00001576  00000+0 -17764-3 0  9999
2 64836  51.9013   4.8002 0007608 321.1765  38.8650 14.79871854 20756
KUIPER-00092            
1 64837U 25151X   25334.13030458  .00005863  00000+0  79561-3 0  9995
2 64837  51.9029  10.8383 0006422 272.0359  87.9868 14.80023517 21911
KUIPER-00093            
1 64838U 25151Y   25334.12775828  .00006293  00000+0  85292-3 0  9998
2 64838  51.9011  13.3403 0013884 278.4286  81.5103 14.79926604 20663
KUIPER-00094            
1 64839U 25151Z   25334.10269884  .00010574  00000+0  76792-3 0  9999
2 64839  51.8905   0.4028 0004805 311.8125  48.2437 15.04354808 20842
KUIPER-00081            
1 65132U 25171A   25334.16671295 -.00898531  00000+0 -55257-1 0  9997
2 65132  51.8896 232.0553 0003477 178.6839 204.6662 15.12315951  3393
KUIPER-00088            
1 65133U 25171B   25334.14999117 -.00007984  00000+0 -11003-2 0  9998
2 65133  51.8995 245.6022 0008449 149.2890 210.8567 14.76703893 18057
